LAPAN-A3                
1 41603U 16040E   26155.20217951  .00003646  00000+0  11643-3 0  9997
2 41603  97.1488 151.7758 0012046  67.0872 293.1641 15.33019137552821
GAOFEN-3                
1 41727U 16049A   26155.17965652 -.00000102  00000+0 -17642-4 0  9999
2 41727  98.4008 163.1619 0001117  97.5545 262.5772 14.42213247516771
SKYSAT-C4               
1 41771U 16058B   26155.14839177  .00018739  00000+0  35782-3 0  9994
2 41771  96.9177 177.4699 0001091  77.7262 282.4112 15.48163298543454
SKYSAT-C5               
1 41772U 16058C   26155.06080453  .00008965  00000+0  27237-3 0  9997
2 41772  97.0472 196.2882 0002566  19.6846 340.4497 15.34274024541734
SKYSAT-C2               
1 41773U 16058D   26155.08532924  .00013268  00000+0  31540-3 0  9999
2 41773  97.0170 177.6762 0005241  98.1899 261.9943 15.41758337543033
SKYSAT-C3               
1 41774U 16058E   26155.05694120  .00025073  00000+0  41821-3 0  9994
2 41774  96.9012 186.4143 0002177  80.1635 279.9865 15.51956524544078
ALSAT-1B                
1 41785U 16059C   26155.19117497  .00000447  00000+0  78289-4 0  9996
2 41785  97.7747 164.5157 0007730 269.9545  90.0778 14.72264465518662
PATHFINDER 1            
1 41787U 16059E   26154.97833664  .00000669  00000+0  12531-3 0  9997
2 41787  97.8166 154.8509 0027037 247.3208 112.5138 14.67647202517770
SCATSAT 1               
1 41790U 16059H   26154.61947551  .00001245  00000+0  17017-3 0  9998
2 41790  98.1197 218.2454 0053325 292.3275  67.2289 14.79496030 99580
GOKTURK 1A              
1 41875U 16073A   26155.18053436  .00000713  00000+0  14908-3 0  9996
2 41875  98.1266  50.0583 0001452  76.3642 283.7721 14.62765743506927
RESOURCESAT-2A          
1 41877U 16074A   26155.19085101  .00000220  00000+0  12023-3 0  9993
2 41877  98.7527 228.8005 0003284 108.5085 251.6449 14.21612036492457
CARTOSAT-2D             
1 41948U 17008A   26153.47095096 -.00002393  00000+0 -11060-3 0  9998
2 41948  97.4108 213.0506 0003457 298.8344  61.2544 15.19207121515340
SENTINEL-2B             
1 42063U 17013A   26155.13054757  .00000000  00000+0  16823-4 0  9991
2 42063  98.5693 230.0885 0001214  85.0261 275.1060 14.30812608482775
CARTOSAT-2E             
1 42767U 17036C   26155.20101027  .00004600  00000+0  22167-3 0  9995
2 42767  97.4278 215.2168 0003570  13.8203 346.3129 15.19215934496177
FORMOSAT-5              
1 42920U 17049A   26155.15673413  .00000240  00000+0  71697-4 0  9996
2 42920  98.2254 230.7557 0012565 120.3939 239.8500 14.50893822464782
SENTINEL-5P             
1 42969U 17064A   26154.45710016  .00000070  00000+0  54088-4 0  9995
2 42969  98.7922  96.6865 0001019  80.8558 279.2733 14.19516465447611
SKYSAT-C11              
1 42987U 17068A   26154.62983218  .00030479  00000+0  42034-3 0  9997
2 42987  97.4343 302.8792 0001303  89.5055 270.6349 15.57161157481139
SKYSAT-C10              
1 42988U 17068B   26155.18539941  .00010395  00000+0  31431-3 0  9994
2 42988  97.4496 291.9093 0001340  90.5092 269.6305 15.34404874480360
SKYSAT-C9               
1 42989U 17068C   26155.19038147  .00014971  00000+0  36175-3 0  9992
2 42989  97.4417 292.7260 0008708 175.2134 184.9197 15.41226215480752
SKYSAT-C8               
1 42990U 17068D   26154.65543428  .00011964  00000+0  33597-3 0  9991
2 42990  97.4513 291.1227 0001587 100.5716 259.5707 15.36695849480238
SKYSAT-C7               
1 42991U 17068E   26154.32299353  .00012311  00000+0  34606-3 0  9990
2 42991  97.4524 291.7746 0006811 147.4751 212.6913 15.36634585480247
SKYSAT-C6               
1 42992U 17068F   26154.84043350  .00010246  00000+0  31167-3 0  9996
2 42992  97.4560 292.3173 0002707 163.5662 196.5669 15.34215986480278
CARTOSAT-2F             
1 43111U 18004A   26155.16711870  .00005683  00000+0  27269-3 0  9993
2 43111  97.4792 214.9276 0000336   1.6484 358.4752 15.19270294465353
GAOFEN-1 02             
1 43259U 18031A   26155.21879109  .00001195  00000+0  17916-3 0  9994
2 43259  98.0529 217.7811 0004487  62.9770 297.1897 14.76463931440789
GAOFEN-1 03             
1 43260U 18031B   26155.19692946  .00000846  00000+0  12901-3 0  9996
2 43260  98.0527 217.6195 0003784 105.1986 254.9642 14.76449539440777
GAOFEN-1 04             
1 43262U 18031D   26155.17268339  .00000648  00000+0  10060-3 0  9995
2 43262  98.0530 217.7839 0002201  95.9177 264.2284 14.76459374440763
SENTINEL-3B             
1 43437U 18039A   26155.07542168  .00000147  00000+0  78971-4 0  9991
2 43437  98.6250 222.7952 0000983  75.0166 285.1124 14.26737956422255
GAOFEN-5 01             
1 43461U 18043A   26154.49766817  .00000391  00000+0  90445-4 0  9998
2 43461  98.4563 125.7972 0002900 108.1077 252.0439 14.60595182429699
GAOFEN-6                
1 43484U 18048A   26155.19596058  .00000599  00000+0  92739-4 0  9992
2 43484  97.7762 218.3556 0011113 211.4957 148.5589 14.76615960431473
GAOFEN-11 01            
1 43585U 18063A   26155.17522987  .00016327  00000+0  24566-3 0  9997
2 43585  97.1295 222.0940 0004541  42.0963 318.0640 15.54897744438323
