OBJECT_NAME,OBJECT_ID,EPOCH,MEAN_MOTION,ECCENTRICITY,INCLINATION,RA_OF_ASC_NODE,ARG_OF_PERICENTER,MEAN_ANOMALY,EPHEMERIS_TYPE,CLASSIFICATION_TYPE,NORAD_CAT_ID,ELEMENT_SET_NO,REV_AT_EPOCH,BSTAR,MEAN_MOTION_DOT,MEAN_MOTION_DDOT
LAPAN-A3,2016-040E,2026-06-04T04:51:08.309664,15.33019137,.0012046,97.1488,151.7758,67.0872,293.1641,0,U,41603,999,55282,.11643E-3,.3646E-4,0
GAOFEN-3,2016-049A,2026-06-04T04:18:42.323328,14.42213247,.0001117,98.4008,163.1619,97.5545,262.5772,0,U,41727,999,51677,-.17642E-4,-.102E-5,0
SKYSAT-C4,2016-058B,2026-06-04T03:33:41.048928,15.48163298,.0001091,96.9177,177.4699,77.7262,282.4112,0,U,41771,999,54345,.35782E-3,.18739E-3,0
SKYSAT-C5,2016-058C,2026-06-04T01:27:33.511392,15.34274024,.0002566,97.0472,196.2882,19.6846,340.4497,0,U,41772,999,54173,.27237E-3,.8965E-4,0
SKYSAT-C2,2016-058D,2026-06-04T02:02:52.446336,15.41758337,.0005241,97.0170,177.6762,98.1899,261.9943,0,U,41773,999,54303,.3154E-3,.13268E-3,0
SKYSAT-C3,2016-058E,2026-06-04T01:21:59.719680,15.51956524,.0002177,96.9012,186.4143,80.1635,279.9865,0,U,41774,999,54407,.41821E-3,.25073E-3,0
ALSAT-1B,2016-059C,2026-06-04T04:35:17.517408,14.72264465,.000773,97.7747,164.5157,269.9545,90.0778,0,U,41785,999,51866,.78289E-4,.447E-5,0
PATHFINDER 1,2016-059E,2026-06-03T23:28:48.285696,14.67647202,.0027037,97.8166,154.8509,247.3208,112.5138,0,U,41787,999,51777,.12531E-3,.669E-5,0
SCATSAT 1,2016-059H,2026-06-03T14:52:02.684064,14.79496030,.0053325,98.1197,218.2454,292.3275,67.2289,0,U,41790,999,9958,.17017E-3,.1245E-4,0
GOKTURK 1A,2016-073A,2026-06-04T04:19:58.168704,14.62765743,.0001452,98.1266,50.0583,76.3642,283.7721,0,U,41875,999,50692,.14908E-3,.713E-5,0
RESOURCESAT-2A,2016-074A,2026-06-04T04:34:49.527264,14.21612036,.0003284,98.7527,228.8005,108.5085,251.6449,0,U,41877,999,49245,.12023E-3,.22E-5,0
CARTOSAT-2D,2017-008A,2026-06-02T11:18:10.162944,15.19207121,.00034572,97.4108,213.0506,298.8344,61.2544,0,U,41948,999,51534,-.11060249E-3,-.2393E-4,0
SENTINEL-2B,2017-013A,2026-06-04T03:07:59.310048,14.30812608,.0001214,98.5693,230.0885,85.0261,275.1060,0,U,42063,999,48277,.16823E-4,0,0
CARTOSAT-2E,2017-036C,2026-06-04T04:49:27.287328,15.19215934,.000357,97.4278,215.2168,13.8203,346.3129,0,U,42767,999,49617,.22167E-3,.46E-4,0
FORMOSAT-5,2017-049A,2026-06-04T03:45:41.828832,14.50893822,.0012565,98.2254,230.7557,120.3939,239.8500,0,U,42920,999,46478,.71697E-4,.24E-5,0
SENTINEL-5P,2017-064A,2026-06-03T10:58:13.453824,14.19516465,.00010192,98.7922,96.6865,80.8558,279.2733,0,U,42969,999,44761,.5408796E-4,.7E-6,0
SKYSAT-C11,2017-068A,2026-06-03T15:06:57.500352,15.57161157,.0001303,97.4343,302.8792,89.5055,270.6349,0,U,42987,999,48113,.42034487E-3,.30479E-3,0
SKYSAT-C10,2017-068B,2026-06-04T04:26:58.509024,15.34404874,.000134,97.4496,291.9093,90.5092,269.6305,0,U,42988,999,48036,.31431E-3,.10395E-3,0
SKYSAT-C9,2017-068C,2026-06-04T04:34:08.959008,15.41226215,.0008708,97.4417,292.7260,175.2134,184.9197,0,U,42989,999,48075,.36175E-3,.14971E-3,0
SKYSAT-C8,2017-068D,2026-06-03T15:43:49.521792,15.36695849,.00015876,97.4513,291.1227,100.5716,259.5707,0,U,42990,999,48023,.33596648E-3,.11964E-3,0
SKYSAT-C7,2017-068E,2026-06-03T07:45:06.640992,15.36634585,.00068117,97.4524,291.7746,147.4751,212.6913,0,U,42991,999,48024,.34605537E-3,.12311E-3,0
SKYSAT-C6,2017-068F,2026-06-03T20:10:13.454400,15.34215986,.00027079,97.4560,292.3173,163.5662,196.5669,0,U,42992,999,48027,.31166974E-3,.10246E-3,0
CARTOSAT-2F,2018-004A,2026-06-04T04:00:39.055680,15.19270294,.0000336,97.4792,214.9276,1.6484,358.4752,0,U,43111,999,46535,.27269E-3,.5683E-4,0
GAOFEN-1 02,2018-031A,2026-06-04T05:15:03.550176,14.76463931,.0004487,98.0529,217.7811,62.9770,297.1897,0,U,43259,999,44078,.17916E-3,.1195E-4,0
GAOFEN-1 03,2018-031B,2026-06-04T04:43:34.705344,14.76449539,.0003784,98.0527,217.6195,105.1986,254.9642,0,U,43260,999,44077,.12901E-3,.846E-5,0
GAOFEN-1 04,2018-031D,2026-06-04T04:08:39.844896,14.76459374,.0002201,98.0530,217.7839,95.9177,264.2284,0,U,43262,999,44076,.1006E-3,.648E-5,0
SENTINEL-3B,2018-039A,2026-06-04T01:48:36.433152,14.26737956,.0000983,98.6250,222.7952,75.0166,285.1124,0,U,43437,999,42225,.78971E-4,.147E-5,0
GAOFEN-5 01,2018-043A,2026-06-03T11:56:38.529888,14.60595182,.00029,98.4563,125.7972,108.1077,252.0439,0,U,43461,999,42969,.90445E-4,.391E-5,0
GAOFEN-6,2018-048A,2026-06-04T04:42:10.994112,14.76615960,.0011113,97.7762,218.3556,211.4957,148.5589,0,U,43484,999,43147,.92739E-4,.599E-5,0
GAOFEN-11 01,2018-063A,2026-06-04T04:12:19.860768,15.54897744,.0004541,97.1295,222.0940,42.0963,318.0640,0,U,43585,999,43832,.24566E-3,.16327E-3,0
